NORAD_CAT_ID,OBJECT_NAME,OBJECT_TYPE,EPOCH,MEAN_MOTION,ECCENTRICITY,INCLINATION,RA_OF_ASC_NODE,ARG_OF_PERICENTER,MEAN_ANOMALY,BSTAR,MEAN_MOTION_DOT,MEAN_MOTION_DDOT,TLE_LINE0,TLE_LINE1,TLE_LINE2,SEMIMAJOR_AXIS,PERIOD,APOGEE,PERIGEE,DECAYED
52628.0,STARLINK-4001,PAYLOAD,2024-02-22 21:37:00,15.08841496,0.0001341,53.2178,32.0984,104.0653,256.0488,2.0733e-05,4.2e-07,0.0,0 STARLINK-4001,1 52628U 22052AG  24053.90070511  .00000042  00000-0  20733-4 0  9996,2 52628  53.2178  32.0984 0001341 104.0653 256.0488 15.08841496 98191,6917.876,95.437,540.669,538.813,0.0
52628.0,STARLINK-4001,PAYLOAD,2024-02-23 03:58:32,15.08849148,0.0001267,53.2175,30.9099,101.7489,258.3645,5.0392e-05,5.14e-06,0.0,0 STARLINK-4001,1 52628U 22052AG  24054.16565883  .00000514  00000-0  50392-4 0  9994,2 52628  53.2175  30.9099 0001267 101.7489 258.3645 15.08849148 98619,6917.852,95.437,540.594,538.841,0.0
52628.0,STARLINK-4001,PAYLOAD,2024-02-23 07:09:18,15.0885036,0.0001402,53.2187,30.314,100.8236,259.2914,0.00014098,1.957e-05,0.0,0 STARLINK-4001,1 52628U 22052AG  24054.29813580  .00001957  00000-0  14098-3 0  9992,2 52628  53.2187  30.3140 0001402 100.8236 259.2914 15.08850360 98251,6917.849,95.437,540.684,538.744,0.0
52628.0,STARLINK-4001,PAYLOAD,2024-02-23 15:06:15,15.08842814,0.0001498,53.2188,28.8275,111.7682,248.347,0.00010984,1.461e-05,0.0,0 STARLINK-4001,1 52628U 22052AG  24054.62934042  .00001461  00000-0  10984-3 0  9996,2 52628  53.2188  28.8275 0001498 111.7682 248.3470 15.08842814 98301,6917.872,95.437,540.773,538.7,0.0
52628.0,STARLINK-4001,PAYLOAD,2024-02-24 03:49:21,15.088339,0.0001904,53.2208,26.4505,112.2823,247.8371,-3.4857e-05,-8.43e-06,0.0,0 STARLINK-4001,1 52628U 22052AG  24055.15927198 -.00000843  00000-0 -34857-4 0  9990,2 52628  53.2208  26.4505 0001904 112.2823 247.8371 15.08833900 98769,6917.899,95.438,541.081,538.447,0.0
52628.0,STARLINK-4001,PAYLOAD,2024-02-24 07:00:07,15.08837523,0.0001455,53.219,25.8539,92.3313,267.7846,3.164e-05,2.16e-06,0.0,0 STARLINK-4001,1 52628U 22052AG  24055.29174934  .00000216  00000-0  31640-4 0  9996,2 52628  53.2190  25.8539 0001455  92.3313 267.7846 15.08837523 98406,6917.888,95.438,540.76,538.746,0.0
52628.0,STARLINK-4001,PAYLOAD,2024-02-24 14:57:02,15.08836648,0.0001477,53.2191,24.3677,93.9843,266.1318,5.5147e-05,5.9e-06,0.0,0 STARLINK-4001,1 52628U 22052AG  24055.62295063  .00000590  00000-0  55147-4 0  9993,2 52628  53.2191  24.3677 0001477  93.9843 266.1318 15.08836648 98452,6917.891,95.438,540.777,538.734,0.0
52628.0,STARLINK-4001,PAYLOAD,2024-02-25 03:40:07,15.08849883,0.0001497,53.2194,21.9867,92.9223,267.1941,2.7644e-05,1.52e-06,0.0,0 STARLINK-4001,1 52628U 22052AG  24056.15286286  .00000152  00000-0  27644-4 0  9994,2 52628  53.2194  21.9867 0001497  92.9223 267.1941 15.08849883 98911,6917.85,95.437,540.751,538.68,0.0
52628.0,STARLINK-4001,PAYLOAD,2024-02-25 14:47:49,15.08851329,0.0001364,53.2188,19.9019,86.7306,273.3842,-1.869e-05,-5.85e-06,0.0,0 STARLINK-4001,1 52628U 22052AG  24056.61654056 -.00000585  00000-0 -18690-4 0  9992,2 52628  53.2188  19.9019 0001364  86.7306 273.3842 15.08851329 98609,6917.846,95.437,540.654,538.767,0.0
52628.0,STARLINK-4001,PAYLOAD,2024-02-26 03:30:54,15.08841652,0.0001264,53.2172,17.5245,85.1463,274.9673,0.0002101,3.058e-05,0.0,0 STARLINK-4001,1 52628U 22052AG  24057.14646372  .00003058  00000-0  21010-3 0  9998,2 52628  53.2172  17.5245 0001264  85.1463 274.9673 15.08841652 99061,6917.875,95.437,540.615,538.866,0.0
52628.0,STARLINK-4001,PAYLOAD,2024-02-26 06:41:40,15.08851569,0.0001404,53.2173,16.927,94.4893,265.626,0.00026359,3.911e-05,0.0,0 STARLINK-4001,1 52628U 22052AG  24057.27893952  .00003911  00000-0  26359-3 0  9999,2 52628  53.2173  16.9270 0001404  94.4893 265.6260 15.08851569 99088,6917.845,95.437,540.681,538.739,0.0
52628.0,STARLINK-4001,PAYLOAD,2024-02-27 03:21:41,15.08840998,0.0001865,53.2192,13.0648,81.077,279.0434,6.5796e-05,7.59e-06,0.0,0 STARLINK-4001,1 52628U 22052AG  24058.14006794  .00000759  00000-0  65796-4 0  9992,2 52628  53.2192  13.0648 0001865  81.0770 279.0434 15.08840998 99214,6917.877,95.437,541.033,538.452,0.0
52628.0,STARLINK-4001,PAYLOAD,2024-02-27 14:29:23,15.08839735,0.0001848,53.2193,10.9804,91.0473,269.0731,4.9595e-05,5.01e-06,0.0,0 STARLINK-4001,1 52628U 22052AG  24058.60374779  .00000501  00000-0  49595-4 0  9998,2 52628  53.2193  10.9804 0001848  91.0473 269.0731 15.08839735 98908,6917.881,95.438,541.025,538.468,0.0
52628.0,STARLINK-4001,PAYLOAD,2024-02-27 20:50:56,15.08837032,0.0001695,53.2182,9.7903,101.1061,259.0122,4.1138e-05,3.67e-06,0.0,0 STARLINK-4001,1 52628U 22052AG  24058.86870869  .00000367  00000-0  41138-4 0  9992,2 52628  53.2182   9.7903 0001695 101.1061 259.0122 15.08837032 98943,6917.889,95.438,540.927,538.582,0.0
52628.0,STARLINK-4001,PAYLOAD,2024-02-28 06:23:14,15.08845516,0.0001639,53.2185,8.007,101.6594,258.4582,6.0528e-05,6.76e-06,0.0,0 STARLINK-4001,1 52628U 22052AG  24059.26614288  .00000676  00000-0  60528-4 0  9995,2 52628  53.2185   8.0070 0001639 101.6594 258.4582 15.08845516 99385,6917.864,95.437,540.862,538.595,0.0
52628.0,STARLINK-4001,PAYLOAD,2024-02-28 20:41:43,15.08835616,0.0001436,53.2164,5.332,100.9714,259.144,-3.5649e-05,-8.55e-06,0.0,0 STARLINK-4001,1 52628U 22052AG  24059.86231050 -.00000855  00000-0 -35649-4 0  9990,2 52628  53.2164   5.3320 0001436 100.9714 259.1440 15.08835616 99472,6917.894,95.438,540.752,538.765,0.0
52628.0,STARLINK-4001,PAYLOAD,2024-02-29 06:14:02,15.08844394,0.0001491,53.2189,3.5488,96.4726,263.6436,5.8948e-05,6.5e-06,0.0,0 STARLINK-4001,1 52628U 22052AG  24060.25974694  .00000650  00000-0  58948-4 0  9991,2 52628  53.2189   3.5488 0001491  96.4726 263.6436 15.08844394 99532,6917.867,95.437,540.763,538.701,0.0
52628.0,STARLINK-4001,PAYLOAD,2024-02-29 12:35:35,15.08838945,0.0001398,53.2179,2.3579,99.05,261.065,2.5807e-05,1.23e-06,0.0,0 STARLINK-4001,1 52628U 22052AG  24060.52471087  .00000123  00000-0  25807-4 0  9992,2 52628  53.2179   2.3579 0001398  99.0500 261.0650 15.08838945 99191,6917.884,95.438,540.716,538.781,0.0
52628.0,STARLINK-4001,PAYLOAD,2024-02-29 20:32:31,15.08828939,0.0001371,53.2179,0.8714,108.6279,251.4862,0.00011072,1.474e-05,0.0,0 STARLINK-4001,1 52628U 22052AG  24060.85591666  .00001474  00000-0  11072-3 0  9992,2 52628  53.2179   0.8714 0001371 108.6279 251.4862 15.08828939 99624,6917.914,95.438,540.728,538.831,0.0
52628.0,STARLINK-4001,PAYLOAD,2024-03-01 02:54:03,15.08839551,0.0001363,53.2173,359.6849,99.755,260.3596,0.00010637,1.405e-05,0.0,0 STARLINK-4001,1 52628U 22052AG  24061.12087176  .00001405  00000-0  10637-3 0  9999,2 52628  53.2173 359.6849 0001363  99.7550 260.3596 15.08839551 99664,6917.882,95.438,540.69,538.804,0.0
52628.0,STARLINK-4001,PAYLOAD,2024-03-01 06:04:49,15.08847277,0.0001377,53.2179,359.0888,97.5805,262.5344,0.00011327,1.516e-05,0.0,0 STARLINK-4001,1 52628U 22052AG  24061.25334676  .00001516  00000-0  11327-3 0  9993,2 52628  53.2179 359.0888 0001377  97.5805 262.5344 15.08847277 99682,6917.858,95.437,540.676,538.771,0.0
52628.0,STARLINK-4001,PAYLOAD,2024-03-01 12:26:21,15.08845642,0.0001288,53.2172,357.8983,91.1254,268.9885,0.00012191,1.653e-05,0.0,0 STARLINK-4001,1 52628U 22052AG  24061.51830708  .00001653  00000-0  12191-3 0  9991,2 52628  53.2172 357.8983 0001288  91.1254 268.9885 15.08845642 99343,6917.863,95.437,540.619,538.837,0.0
52628.0,STARLINK-4001,PAYLOAD,2024-03-02 01:09:27,15.08842194,0.0001313,53.2181,355.519,83.8777,276.2365,8.7951e-05,1.112e-05,0.0,0 STARLINK-4001,1 52628U 22052AG  24062.04823044  .00001112  00000-0  87951-4 0  9992,2 52628  53.2181 355.5190 0001313  83.8777 276.2365 15.08842194 99800,6917.874,95.437,540.647,538.83,0.0
52628.0,STARLINK-4001,PAYLOAD,2024-03-03 02:35:39,15.08819708,0.0001236,53.2175,350.7627,120.2522,239.8592,-0.0001252,-2.279e-05,0.0,0 STARLINK-4001,1 52628U 22052AG  24063.10810009 -.00002279  00000-0 -12520-3 0  9993,2 52628  53.2175 350.7627 0001236 120.2522 239.8592 15.08819708 99962,6917.942,95.439,540.662,538.952,0.0
52628.0,STARLINK-4001,PAYLOAD,2024-03-04 02:26:23,15.08878073,0.0001365,53.2185,346.3068,93.587,266.5278,0.00067754,0.00010523,0.0,0 STARLINK-4001,1 52628U 22052AG  24064.10166512  .00010523  00000-0  67754-3 0  9995,2 52628  53.2185 346.3068 0001365  93.5870 266.5278 15.08878073100112,6917.764,95.435,540.573,538.685,0.0
52628.0,STARLINK-4001,PAYLOAD,2024-03-04 11:58:41,15.08895791,0.0001333,53.2181,344.5168,75.8102,284.3038,0.0010443,0.00016396,0.0,0 STARLINK-4001,1 52628U 22052AG  24064.49908865  .00016396  00000-0  10443-2 0  9998,2 52628  53.2181 344.5168 0001333  75.8102 284.3038 15.08895791 99794,6917.71,95.434,540.497,538.653,0.0
52628.0,STARLINK-4001,PAYLOAD,2024-03-04 23:06:26,15.08819772,0.0001453,53.2185,342.4362,78.7576,281.3579,-0.00010256,-1.919e-05,0.0,0 STARLINK-4001,1 52628U 22052AG  24064.96280700 -.00001919  00000-0 -10256-3 0  9991,2 52628  53.2185 342.4362 0001453  78.7576 281.3579 15.08819772 99861,6917.942,95.439,540.812,538.802,0.0
52628.0,STARLINK-4001,PAYLOAD,2024-03-05 03:52:35,15.08826603,0.0001937,53.2199,341.5386,80.6464,279.4747,-4.4499e-05,-9.96e-06,0.0,0 STARLINK-4001,1 52628U 22052AG  24065.16152487 -.00000996  00000-0 -44499-4 0  9995,2 52628  53.2199 341.5386 0001937  80.6464 279.4747 15.08826603100271,6917.921,95.438,541.126,538.446,0.0
52628.0,STARLINK-4001,PAYLOAD,2024-03-05 05:27:58,15.08835511,0.0001564,53.2185,341.2464,81.5101,278.6068,7.3067e-05,8.75e-06,0.0,0 STARLINK-4001,1 52628U 22052AG  24065.22776003  .00000875  00000-0  73067-4 0  9995,2 52628  53.2185 341.2464 0001564  81.5101 278.6068 15.08835511 99906,6917.894,95.438,540.841,538.677,0.0
52628.0,STARLINK-4001,PAYLOAD,2024-03-05 18:11:02,15.08848027,0.0001545,53.2184,338.8687,84.5593,275.5576,-0.00045873,-7.583e-05,0.0,0 STARLINK-4001,1 52628U 22052AG  24065.75767287 -.00007583  00000-0 -45873-3 0  9995,2 52628  53.2184 338.8687 0001545  84.5593 275.5576 15.08848027100360,6917.856,95.437,540.79,538.652,0.0
